{"type": "FeatureCollection", "features": [ {"type": "Feature", "properties": {"norad_id": 51444, "name": "CSG-2", "group": "resource", "lat": -18.886483014534072, "lon": 168.3971583848368, "alt_km": 627.8159272648772, "timestamp": "2025-12-10T07:43:54.431851+00:00", "meta": {"OBJECT_NAME": "CSG-2", "OBJECT_ID": "2022-008A", "EPOCH": "2025-12-09T20:28:33.241728", "MEAN_MOTION": 14.82158173, "ECCENTRICITY": 0.0001494, "INCLINATION": 97.8803, "RA_OF_ASC_NODE": 165.2195, "ARG_OF_PERICENTER": 82.4753, "MEAN_ANOMALY": 277.663, "EPHEMERIS_TYPE": 0, "CLASSIFICATION_TYPE": "U", "NORAD_CAT_ID": 51444, "ELEMENT_SET_NO": 999, "REV_AT_EPOCH": 20854, "BSTAR": 8.7475e-05, "MEAN_MOTION_DOT": 6.44e-06, "MEAN_MOTION_DDOT": 0}, "tle": {"line1": "1 51444U 22008A   25343.85316252  .00000644  00000+0  87475-4 0  9997", "line2": "2 51444  97.8803 165.2195 0001494  82.4753 277.6630 14.82158173208541"}}, "geometry": {"type": "Point", "coordinates": [168.3971583848368, -18.886483014534072]}}, {"type": "Feature", "properties": {"norad_id": 52912, "name": "GAOFEN-12 03", "group": "resource", "lat": -77.46658544461161, "lon": -89.92460936858248, "alt_km": 639.2280361323665, "timestamp": "2025-12-10T07:43:54.431861+00:00", "meta": {"OBJECT_NAME": "GAOFEN-12 03", "OBJECT_ID": "2022-069A", "EPOCH": "2025-12-09T20:43:57.046944", "MEAN_MOTION": 14.79599552, "ECCENTRICITY": 0.0002285, "INCLINATION": 97.848, "RA_OF_ASC_NODE": 231.2791, "ARG_OF_PERICENTER": 65.9405, "MEAN_ANOMALY": 294.2046, "EPHEMERIS_TYPE": 0, "CLASSIFICATION_TYPE": "U", "NORAD_CAT_ID": 52912, "ELEMENT_SET_NO": 999, "REV_AT_EPOCH": 18661, "BSTAR": 0.00029386, "MEAN_MOTION_DOT": 2.151e-05, "MEAN_MOTION_DDOT": 0}, "tle": {"line1": "1 52912U 22069A   25343.86385471  .00002151  00000+0  29386-3 0  9996", "line2": "2 52912  97.8480 231.2791 0002285  65.9405 294.2046 14.79599552186613"}}, "geometry": {"type": "Point", "coordinates": [-89.92460936858248, -77.46658544461161]}}, {"type": "Feature", "properties": {"norad_id": 54754, "name": "SWOT", "group": "resource", "lat": -43.52378615016, "lon": 122.30347168845982, "alt_km": 899.720973336849, "timestamp": "2025-12-10T07:43:54.431871+00:00", "meta": {"OBJECT_NAME": "SWOT", "OBJECT_ID": "2022-173A", "EPOCH": "2025-12-09T20:22:20.511264", "MEAN_MOTION": 14.00174088, "ECCENTRICITY": 3.34e-05, "INCLINATION": 77.6104, "RA_OF_ASC_NODE": 290.8921, "ARG_OF_PERICENTER": 121.0723, "MEAN_ANOMALY": 239.0462, "EPHEMERIS_TYPE": 0, "CLASSIFICATION_TYPE": "U", "NORAD_CAT_ID": 54754, "ELEMENT_SET_NO": 999, "REV_AT_EPOCH": 15265, "BSTAR": 6.1159e-05, "MEAN_MOTION_DOT": 8.8e-07, "MEAN_MOTION_DDOT": 0}, "tle": {"line1": "1 54754U 22173A   25343.84884851  .00000088  00000+0  61159-4 0  9994", "line2": "2 54754  77.6104 290.8921 0000334 121.0723 239.0462 14.00174088152657"}}, "geometry": {"type": "Point", "coordinates": [122.30347168845982, -43.52378615016]}}, {"type": "Feature", "properties": {"norad_id": 57654, "name": "GAOFEN-12 04", "group": "resource", "lat": 81.96696367539509, "lon": 179.9226166463316, "alt_km": 621.9404708089505, "timestamp": "2025-12-10T07:43:54.431881+00:00", "meta": {"OBJECT_NAME": "GAOFEN-12 04", "OBJECT_ID": "2023-123A", "EPOCH": "2025-12-09T21:35:42.428832", "MEAN_MOTION": 14.79687972, "ECCENTRICITY": 0.0001347, "INCLINATION": 97.9119, "RA_OF_ASC_NODE": 259.7001, "ARG_OF_PERICENTER": 72.1181, "MEAN_ANOMALY": 288.0178, "EPHEMERIS_TYPE": 0, "CLASSIFICATION_TYPE": "U", "NORAD_CAT_ID": 57654, "ELEMENT_SET_NO": 999, "REV_AT_EPOCH": 12463, "BSTAR": 0.00033269, "MEAN_MOTION_DOT": 2.447e-05, "MEAN_MOTION_DDOT": 0}, "tle": {"line1": "1 57654U 23123A   25343.89979663  .00002447  00000+0  33269-3 0  9994", "line2": "2 57654  97.9119 259.7001 0001347  72.1181 288.0178 14.79687972124634"}}, "geometry": {"type": "Point", "coordinates": [179.9226166463316, 81.96696367539509]}}, {"type": "Feature", "properties": {"norad_id": 59065, "name": "PARS 1", "group": "resource", "lat": -46.519965578683546, "lon": -36.8493620100055, "alt_km": 455.4334910716252, "timestamp": "2025-12-10T07:43:54.431891+00:00", "meta": {"OBJECT_NAME": "PARS 1", "OBJECT_ID": "2024-039Q", "EPOCH": "2025-12-09T21:01:32.715840", "MEAN_MOTION": 15.40873892, "ECCENTRICITY": 0.0012677, "INCLINATION": 97.4638, "RA_OF_ASC_NODE": 314.7485, "ARG_OF_PERICENTER": 80.8459, "MEAN_ANOMALY": 279.4221, "EPHEMERIS_TYPE": 0, "CLASSIFICATION_TYPE": "U", "NORAD_CAT_ID": 59065, "ELEMENT_SET_NO": 999, "REV_AT_EPOCH": 9944, "BSTAR": 0.00041847, "MEAN_MOTION_DOT": 0.00017161, "MEAN_MOTION_DDOT": 0}, "tle": {"line1": "1 59065U 24039Q   25343.87607310  .00017161  00000+0  41847-3 0  9994", "line2": "2 59065  97.4638 314.7485 0012677  80.8459 279.4221 15.40873892 99443"}}, "geometry": {"type": "Point", "coordinates": [-36.8493620100055, -46.519965578683546]}}, {"type": "Feature", "properties": {"norad_id": 59371, "name": "RESURS-P 4", "group": "resource", "lat": 7.507038705116667, "lon": 111.66352609115992, "alt_km": 472.3681601423441, "timestamp": "2025-12-10T07:43:54.431901+00:00", "meta": {"OBJECT_NAME": "RESURS-P 4", "OBJECT_ID": "2024-061A", "EPOCH": "2025-12-09T20:00:33.810624", "MEAN_MOTION": 15.32049848, "ECCENTRICITY": 0.0001728, "INCLINATION": 97.2543, "RA_OF_ASC_NODE": 290.2233, "ARG_OF_PERICENTER": 53.0594, "MEAN_ANOMALY": 307.0806, "EPHEMERIS_TYPE": 0, "CLASSIFICATION_TYPE": "U", "NORAD_CAT_ID": 59371, "ELEMENT_SET_NO": 999, "REV_AT_EPOCH": 9476, "BSTAR": 0.00020051, "MEAN_MOTION_DOT": 6.128e-05, "MEAN_MOTION_DDOT": 0}, "tle": {"line1": "1 59371U 24061A   25343.83372466  .00006128  00000+0  20051-3 0  9991", "line2": "2 59371  97.2543 290.2233 0001728  53.0594 307.0806 15.32049848 94766"}}, "geometry": {"type": "Point", "coordinates": [111.66352609115992, 7.507038705116667]}}, {"type": "Feature", "properties": {"norad_id": 59625, "name": "LEGION 1", "group": "resource", "lat": 6.931214450533519, "lon": -120.09871726120356, "alt_km": 521.3733174881563, "timestamp": "2025-12-10T07:43:54.431911+00:00", "meta": {"OBJECT_NAME": "LEGION 1", "OBJECT_ID": "2024-081A", "EPOCH": "2025-12-09T19:53:09.484800", "MEAN_MOTION": 15.16435092, "ECCENTRICITY": 0.0004209, "INCLINATION": 97.5211, "RA_OF_ASC_NODE": 58.4917, "ARG_OF_PERICENTER": 330.0546, "MEAN_ANOMALY": 30.0446, "EPHEMERIS_TYPE": 0, "CLASSIFICATION_TYPE": "U", "NORAD_CAT_ID": 59625, "ELEMENT_SET_NO": 999, "REV_AT_EPOCH": 8883, "BSTAR": 0.00043732, "MEAN_MOTION_DOT": 8.441e-05, "MEAN_MOTION_DDOT": 0}, "tle": {"line1": "1 59625U 24081A   25343.82858200  .00008441  00000+0  43732-3 0  9990", "line2": "2 59625  97.5211  58.4917 0004209 330.0546  30.0446 15.16435092 88834"}}, "geometry": {"type": "Point", "coordinates": [-120.09871726120356, 6.931214450533519]}}, {"type": "Feature", "properties": {"norad_id": 59626, "name": "LEGION 2", "group": "resource", "lat": -7.43702871198988, "lon": 60.05639986796932, "alt_km": 517.8783403333855, "timestamp": "2025-12-10T07:43:54.431921+00:00", "meta": {"OBJECT_NAME": "LEGION 2", "OBJECT_ID": "2024-081B", "EPOCH": "2025-12-09T19:05:44.073600", "MEAN_MOTION": 15.16446562, "ECCENTRICITY": 0.0005825, "INCLINATION": 97.5214, "RA_OF_ASC_NODE": 58.5462, "ARG_OF_PERICENTER": 306.3664, "MEAN_ANOMALY": 53.7031, "EPHEMERIS_TYPE": 0, "CLASSIFICATION_TYPE": "U", "NORAD_CAT_ID": 59626, "ELEMENT_SET_NO": 999, "REV_AT_EPOCH": 8883, "BSTAR": 0.00039018, "MEAN_MOTION_DOT": 7.527e-05, "MEAN_MOTION_DDOT": 0}, "tle": {"line1": "1 59626U 24081B   25343.79564900  .00007527  00000+0  39018-3 0  9994", "line2": "2 59626  97.5214  58.5462 0005825 306.3664  53.7031 15.16446562 88832"}}, "geometry": {"type": "Point", "coordinates": [60.05639986796932, -7.43702871198988]}}, {"type": "Feature", "properties": {"norad_id": 60182, "name": "ALOS-4 (DAICHI-4)", "group": "resource", "lat": -28.60935246710513, "lon": 83.55992723574785, "alt_km": 637.497957597373, "timestamp": "2025-12-10T07:43:54.431931+00:00", "meta": {"OBJECT_NAME": "ALOS-4 (DAICHI-4)", "OBJECT_ID": "2024-123A", "EPOCH": "2025-12-09T20:29:59.581248", "MEAN_MOTION": 14.79470581, "ECCENTRICITY": 0.0001427, "INCLINATION": 97.9229, "RA_OF_ASC_NODE": 78.7424, "ARG_OF_PERICENTER": 101.2557, "MEAN_ANOMALY": 258.8815, "EPHEMERIS_TYPE": 0, "CLASSIFICATION_TYPE": "U", "NORAD_CAT_ID": 60182, "ELEMENT_SET_NO": 999, "REV_AT_EPOCH": 7788, "BSTAR": 0.00024053, "MEAN_MOTION_DOT": 1.745e-05, "MEAN_MOTION_DDOT": 0}, "tle": {"line1": "1 60182U 24123A   25343.85416182  .00001745  00000+0  24053-3 0  9994", "line2": "2 60182  97.9229  78.7424 0001427 101.2557 258.8815 14.79470581 77887"}}, "geometry": {"type": "Point", "coordinates": [83.55992723574785, -28.60935246710513]}}, {"type": "Feature", "properties": {"norad_id": 60452, "name": "LEGION 3", "group": "resource", "lat": 17.41032402709553, "lon": -18.621857976390427, "alt_km": 525.7284769942744, "timestamp": "2025-12-10T07:43:54.431942+00:00", "meta": {"OBJECT_NAME": "LEGION 3", "OBJECT_ID": "2024-146A", "EPOCH": "2025-12-09T18:58:02.770176", "MEAN_MOTION": 15.15713129, "ECCENTRICITY": 0.0014553, "INCLINATION": 45.0025, "RA_OF_ASC_NODE": 325.9439, "ARG_OF_PERICENTER": 182.7334, "MEAN_ANOMALY": 177.3467, "EPHEMERIS_TYPE": 0, "CLASSIFICATION_TYPE": "U", "NORAD_CAT_ID": 60452, "ELEMENT_SET_NO": 999, "REV_AT_EPOCH": 7328, "BSTAR": 0.00043671, "MEAN_MOTION_DOT": 8.226e-05, "MEAN_MOTION_DDOT": 0}, "tle": {"line1": "1 60452U 24146A   25343.79030984  .00008226  00000+0  43671-3 0  9992", "line2": "2 60452  45.0025 325.9439 0014553 182.7334 177.3467 15.15713129 73286"}}, "geometry": {"type": "Point", "coordinates": [-18.621857976390427, 17.41032402709553]}}]}